{
  "type": "FeatureCollection",
  "features": [
    {
      "type": "Feature",
      "properties": {
        "norad_id": 43564,
        "name": "GSAT0221 (GALILEO 25)",
        "group": "galileo",
        "lat": -56.9148149736131,
        "lon": -111.48221318090226,
        "alt_km": 23209.02553307979,
        "timestamp": "2025-12-03T13:52:09.824639+00:00",
        "meta_object_name": "GSAT0221 (GALILEO 25)",
        "meta_object_id": "2018-060A",
        "meta_epoch": "2025-12-01T09:15:23.303232",
        "meta_mean_motion": 1.70475711,
        "meta_eccentricity": 0.00066191,
        "meta_inclination": 57.2301,
        "meta_ra_of_asc_node": 347.1247,
        "meta_arg_of_pericenter": 279.777,
        "meta_mean_anomaly": 80.1905,
        "meta_ephemeris_type": 0,
        "meta_classification_type": "U",
        "meta_norad_cat_id": 43564,
        "meta_element_set_no": 999,
        "meta_rev_at_epoch": 4579,
        "meta_bstar": 0,
        "meta_mean_motion_dot": -5.9e-07,
        "meta_mean_motion_ddot": 0,
        "tle_line1": "1 43564U 18060A   25335.38568638 -.00000059  00000+0  00000+0 0  9995",
        "tle_line2": "2 43564  57.2301 347.1247 0006619 279.7770  80.1905  1.70475711 45792"
      },
      "geometry": {
        "type": "Point",
        "coordinates": [
          -111.48221318090226,
          -56.9148149736131
        ]
      }
    },
    {
      "type": "Feature",
      "properties": {
        "norad_id": 43565,
        "name": "GSAT0222 (GALILEO 26)",
        "group": "galileo",
        "lat": 39.578875331618725,
        "lon": 134.90018352982352,
        "alt_km": 23228.728082868885,
        "timestamp": "2025-12-03T13:52:09.824650+00:00",
        "meta_object_name": "GSAT0222 (GALILEO 26)",
        "meta_object_id": "2018-060B",
        "meta_epoch": "2025-11-29T06:12:28.687968",
        "meta_mean_motion": 1.70475509,
        "meta_eccentricity": 0.00061732,
        "meta_inclination": 57.2346,
        "meta_ra_of_asc_node": 347.1853,
        "meta_arg_of_pericenter": 259.4518,
        "meta_mean_anomaly": 100.5223,
        "meta_ephemeris_type": 0,
        "meta_classification_type": "U",
        "meta_norad_cat_id": 43565,
        "meta_element_set_no": 999,
        "meta_rev_at_epoch": 4580,
        "meta_bstar": 0,
        "meta_mean_motion_dot": -5.5e-07,
        "meta_mean_motion_ddot": 0,
        "tle_line1": "1 43565U 18060B   25333.25866537 -.00000055  00000+0  00000+0 0  9995",
        "tle_line2": "2 43565  57.2346 347.1853 0006173 259.4518 100.5223  1.70475509 45802"
      },
      "geometry": {
        "type": "Point",
        "coordinates": [
          134.90018352982352,
          39.578875331618725
        ]
      }
    },
    {
      "type": "Feature",
      "properties": {
        "norad_id": 43566,
        "name": "GSAT0219 (GALILEO 23)",
        "group": "galileo",
        "lat": -4.138111019597961,
        "lon": -15.594549949870624,
        "alt_km": 23216.811749384367,
        "timestamp": "2025-12-03T13:52:09.824661+00:00",
        "meta_object_name": "GSAT0219 (GALILEO 23)",
        "meta_object_id": "2018-060C",
        "meta_epoch": "2025-11-30T01:35:38.037408",
        "meta_mean_motion": 1.70475682,
        "meta_eccentricity": 0.00057799,
        "meta_inclination": 57.2334,
        "meta_ra_of_asc_node": 347.165,
        "meta_arg_of_pericenter": 285.7575,
        "meta_mean_anomaly": 74.2225,
        "meta_ephemeris_type": 0,
        "meta_classification_type": "U",
        "meta_norad_cat_id": 43566,
        "meta_element_set_no": 999,
        "meta_rev_at_epoch": 4579,
        "meta_bstar": 0,
        "meta_mean_motion_dot": -5.6e-07,
        "meta_mean_motion_ddot": 0,
        "tle_line1": "1 43566U 18060C   25334.06641247 -.00000056  00000+0  00000+0 0  9996",
        "tle_line2": "2 43566  57.2334 347.1650 0005779 285.7575  74.2225  1.70475682 45790"
      },
      "geometry": {
        "type": "Point",
        "coordinates": [
          -15.594549949870624,
          -4.138111019597961
        ]
      }
    },
    {
      "type": "Feature",
      "properties": {
        "norad_id": 43567,
        "name": "GSAT0220 (GALILEO 24)",
        "group": "galileo",
        "lat": -32.25489653106764,
        "lon": -168.93480119978184,
        "alt_km": 23217.377001099856,
        "timestamp": "2025-12-03T13:52:09.824672+00:00",
        "meta_object_name": "GSAT0220 (GALILEO 24)",
        "meta_object_id": "2018-060D",
        "meta_epoch": "2025-12-01T11:03:06.852672",
        "meta_mean_motion": 1.70475407,
        "meta_eccentricity": 0.00061058,
        "meta_inclination": 57.2328,
        "meta_ra_of_asc_node": 347.128,
        "meta_arg_of_pericenter": 280.6549,
        "meta_mean_anomaly": 79.3184,
        "meta_ephemeris_type": 0,
        "meta_classification_type": "U",
        "meta_norad_cat_id": 43567,
        "meta_element_set_no": 999,
        "meta_rev_at_epoch": 4580,
        "meta_bstar": 0,
        "meta_mean_motion_dot": -5.9e-07,
        "meta_mean_motion_ddot": 0,
        "tle_line1": "1 43567U 18060D   25335.46049598 -.00000059  00000+0  00000+0 0  9996",
        "tle_line2": "2 43567  57.2328 347.1280 0006105 280.6549  79.3184  1.70475407 45809"
      },
      "geometry": {
        "type": "Point",
        "coordinates": [
          -168.93480119978184,
          -32.25489653106764
        ]
      }
    },
    {
      "type": "Feature",
      "properties": {
        "norad_id": 49809,
        "name": "GSAT0223 (GALILEO 27)",
        "group": "galileo",
        "lat": -39.9219734466147,
        "lon": -45.666750553586176,
        "alt_km": 23220.240616330993,
        "timestamp": "2025-12-03T13:52:09.824683+00:00",
        "meta_object_name": "GSAT0223 (GALILEO 27)",
        "meta_object_id": "2021-116A",
        "meta_epoch": "2025-12-01T07:17:38.669856",
        "meta_mean_motion": 1.70475545,
        "meta_eccentricity": 0.00047526,
        "meta_inclination": 57.2221,
        "meta_ra_of_asc_node": 347.0231,
        "meta_arg_of_pericenter": 247.908,
        "meta_mean_anomaly": 106.7158,
        "meta_ephemeris_type": 0,
        "meta_classification_type": "U",
        "meta_norad_cat_id": 49809,
        "meta_element_set_no": 999,
        "meta_rev_at_epoch": 2480,
        "meta_bstar": 0,
        "meta_mean_motion_dot": -5.9e-07,
        "meta_mean_motion_ddot": 0,
        "tle_line1": "1 49809U 21116A   25335.30391979 -.00000059  00000+0  00000+0 0  9993",
        "tle_line2": "2 49809  57.2221 347.0231 0004752 247.9080 106.7158  1.70475545 24809"
      },
      "geometry": {
        "type": "Point",
        "coordinates": [
          -45.666750553586176,
          -39.9219734466147
        ]
      }
    },
    {
      "type": "Feature",
      "properties": {
        "norad_id": 49810,
        "name": "GSAT0224 (GALILEO 28)",
        "group": "galileo",
        "lat": 48.373877937628784,
        "lon": 33.45236602269809,
        "alt_km": 23228.202680663606,
        "timestamp": "2025-12-03T13:52:09.824694+00:00",
        "meta_object_name": "GSAT0224 (GALILEO 28)",
        "meta_object_id": "2021-116B",
        "meta_epoch": "2025-12-01T10:08:38.707008",
        "meta_mean_motion": 1.70475584,
        "meta_eccentricity": 0.00040435,
        "meta_inclination": 57.2228,
        "meta_ra_of_asc_node": 347.0184,
        "meta_arg_of_pericenter": 250.3752,
        "meta_mean_anomaly": 289.7186,
        "meta_ephemeris_type": 0,
        "meta_classification_type": "U",
        "meta_norad_cat_id": 49810,
        "meta_element_set_no": 999,
        "meta_rev_at_epoch": 2483,
        "meta_bstar": 0,
        "meta_mean_motion_dot": -5.9e-07,
        "meta_mean_motion_ddot": 0,
        "tle_line1": "1 49810U 21116B   25335.42267022 -.00000059  00000+0  00000+0 0  9999",
        "tle_line2": "2 49810  57.2228 347.0184 0004043 250.3752 289.7186  1.70475584 24831"
      },
      "geometry": {
        "type": "Point",
        "coordinates": [
          33.45236602269809,
          48.373877937628784
        ]
      }
    },
    {
      "type": "Feature",
      "properties": {
        "norad_id": 59598,
        "name": "GSAT0225 (GALILEO 29)",
        "group": "galileo",
        "lat": 42.30892682418618,
        "lon": 146.13703624142727,
        "alt_km": 23219.83423110483,
        "timestamp": "2025-12-03T13:52:09.824706+00:00",
        "meta_object_name": "GSAT0225 (GALILEO 29)",
        "meta_object_id": "2024-079A",
        "meta_epoch": "2025-12-01T03:29:20.871744",
        "meta_mean_motion": 1.70474544,
        "meta_eccentricity": 0.0002155,
        "meta_inclination": 54.9941,
        "meta_ra_of_asc_node": 106.6197,
        "meta_arg_of_pericenter": 171.5653,
        "meta_mean_anomaly": 190.7741,
        "meta_ephemeris_type": 0,
        "meta_classification_type": "U",
        "meta_norad_cat_id": 59598,
        "meta_element_set_no": 999,
        "meta_rev_at_epoch": 994,
        "meta_bstar": 0,
        "meta_mean_motion_dot": 4.1e-07,
        "meta_mean_motion_ddot": 0,
        "tle_line1": "1 59598U 24079A   25335.14538046  .00000041  00000+0  00000+0 0  9990",
        "tle_line2": "2 59598  54.9941 106.6197 0002155 171.5653 190.7741  1.70474544  9948"
      },
      "geometry": {
        "type": "Point",
        "coordinates": [
          146.13703624142727,
          42.30892682418618
        ]
      }
    }
  ]
}